{"type": "FeatureCollection", "features": [ {"type": "Feature", "properties": {"norad_id": 66687, "name": "TRANSPORTER-15X", "group": "last-30-days", "lat": -14.478844323268934, "lon": -111.6293714821928, "alt_km": 525.0804893358081, "timestamp": "2025-12-24T18:55:54.775318+00:00", "meta": {"OBJECT_NAME": "TRANSPORTER-15X", "OBJECT_ID": "2025-276X", "EPOCH": "2025-12-24T05:24:39.071808", "MEAN_MOTION": 15.16737847, "ECCENTRICITY": 0.0008099, "INCLINATION": 97.4383, "RA_OF_ASC_NODE": 69.7513, "ARG_OF_PERICENTER": 49.7417, "MEAN_ANOMALY": 310.4523, "EPHEMERIS_TYPE": 0, "CLASSIFICATION_TYPE": "U", "NORAD_CAT_ID": 66687, "ELEMENT_SET_NO": 999, "REV_AT_EPOCH": 386, "BSTAR": 0.00075838683, "MEAN_MOTION_DOT": 0.00014838, "MEAN_MOTION_DDOT": 0}, "tle": {"line1": "1 66687U 25276X   25358.22545222  .00014838  00000+0  75839-3 0  9990", "line2": "2 66687  97.4383  69.7513 0008099  49.7417 310.4523 15.16737847  3862"}}, "geometry": {"type": "Point", "coordinates": [-111.6293714821928, -14.478844323268934]}}, {"type": "Feature", "properties": {"norad_id": 66688, "name": "TRANSPORTER-15Y", "group": "last-30-days", "lat": -50.66647535378892, "lon": -118.8434794407513, "alt_km": 518.9358457463195, "timestamp": "2025-12-24T18:55:54.775328+00:00", "meta": {"OBJECT_NAME": "TRANSPORTER-15Y", "OBJECT_ID": "2025-276Y", "EPOCH": "2025-12-24T05:15:06.999264", "MEAN_MOTION": 15.17099055, "ECCENTRICITY": 0.00038264, "INCLINATION": 97.4427, "RA_OF_ASC_NODE": 69.7761, "ARG_OF_PERICENTER": 242.4697, "MEAN_ANOMALY": 117.6148, "EPHEMERIS_TYPE": 0, "CLASSIFICATION_TYPE": "U", "NORAD_CAT_ID": 66688, "ELEMENT_SET_NO": 999, "REV_AT_EPOCH": 386, "BSTAR": 0.0005708681, "MEAN_MOTION_DOT": 0.00011256, "MEAN_MOTION_DDOT": 0}, "tle": {"line1": "1 66688U 25276Y   25358.21883101  .00011256  00000+0  57087-3 0  9997", "line2": "2 66688  97.4427  69.7761 0003826 242.4697 117.6148 15.17099055  3865"}}, "geometry": {"type": "Point", "coordinates": [-118.8434794407513, -50.66647535378892]}}, {"type": "Feature", "properties": {"norad_id": 66689, "name": "TRANSPORTER-15Z", "group": "last-30-days", "lat": -29.684894705769757, "lon": 74.64684047377305, "alt_km": 471.64995249997264, "timestamp": "2025-12-24T18:55:54.775338+00:00", "meta": {"OBJECT_NAME": "TRANSPORTER-15Z", "OBJECT_ID": "2025-276Z", "EPOCH": "2025-12-22T21:27:46.425312", "MEAN_MOTION": 15.23073772, "ECCENTRICITY": 0.00272271, "INCLINATION": 97.4409, "RA_OF_ASC_NODE": 68.4858, "ARG_OF_PERICENTER": 260.8557, "MEAN_ANOMALY": 98.9599, "EPHEMERIS_TYPE": 0, "CLASSIFICATION_TYPE": "U", "NORAD_CAT_ID": 66689, "ELEMENT_SET_NO": 999, "REV_AT_EPOCH": 366, "BSTAR": 0.086131248, "MEAN_MOTION_DOT": 0.02294864, "MEAN_MOTION_DDOT": 0}, "tle": {"line1": "1 66689U 25276Z   25356.89428733  .02294864  00000+0  86131-1 0  9996", "line2": "2 66689  97.4409  68.4858 0027227 260.8557  98.9599 15.23073772  3663"}}, "geometry": {"type": "Point", "coordinates": [74.64684047377305, -29.684894705769757]}}, {"type": "Feature", "properties": {"norad_id": 66690, "name": "TRANSPORTER-15AA", "group": "last-30-days", "lat": -50.212982822200765, "lon": -118.70295085714935, "alt_km": 519.1358351298168, "timestamp": "2025-12-24T18:55:54.775350+00:00", "meta": {"OBJECT_NAME": "TRANSPORTER-15AA", "OBJECT_ID": "2025-276AA", "EPOCH": "2025-12-24T05:15:13.926816", "MEAN_MOTION": 15.17080534, "ECCENTRICITY": 0.00035509, "INCLINATION": 97.439, "RA_OF_ASC_NODE": 69.7644, "ARG_OF_PERICENTER": 235.0362, "MEAN_ANOMALY": 125.0538, "EPHEMERIS_TYPE": 0, "CLASSIFICATION_TYPE": "U", "NORAD_CAT_ID": 66690, "ELEMENT_SET_NO": 999, "REV_AT_EPOCH": 386, "BSTAR": 0.00058179807, "MEAN_MOTION_DOT": 0.00011467, "MEAN_MOTION_DDOT": 0}, "tle": {"line1": "1 66690U 25276AA  25358.21891119  .00011467  00000+0  58180-3 0  9997", "line2": "2 66690  97.4390  69.7644 0003550 235.0362 125.0538 15.17080534  3866"}}, "geometry": {"type": "Point", "coordinates": [-118.70295085714935, -50.212982822200765]}}, {"type": "Feature", "properties": {"norad_id": 66691, "name": "TRANSPORTER-15AB", "group": "last-30-days", "lat": -62.44965191851235, "lon": -124.17320867649248, "alt_km": 518.4682110011945, "timestamp": "2025-12-24T18:55:54.775360+00:00", "meta": {"OBJECT_NAME": "TRANSPORTER-15AB", "OBJECT_ID": "2025-276AB", "EPOCH": "2025-12-24T05:12:02.069568", "MEAN_MOTION": 15.17324498, "ECCENTRICITY": 0.00038168, "INCLINATION": 97.4415, "RA_OF_ASC_NODE": 69.7745, "ARG_OF_PERICENTER": 243.221, "MEAN_ANOMALY": 116.8633, "EPHEMERIS_TYPE": 0, "CLASSIFICATION_TYPE": "U", "NORAD_CAT_ID": 66691, "ELEMENT_SET_NO": 999, "REV_AT_EPOCH": 386, "BSTAR": 0.00066187489, "MEAN_MOTION_DOT": 0.00013149, "MEAN_MOTION_DDOT": 0}, "tle": {"line1": "1 66691U 25276AB  25358.21669062  .00013149  00000+0  66187-3 0  9993", "line2": "2 66691  97.4415  69.7745 0003816 243.2210 116.8633 15.17324498  3869"}}, "geometry": {"type": "Point", "coordinates": [-124.17320867649248, -62.44965191851235]}}, {"type": "Feature", "properties": {"norad_id": 66692, "name": "TRANSPORTER-15AC", "group": "last-30-days", "lat": -78.40168677233076, "lon": -149.21193332143542, "alt_km": 519.7427251989766, "timestamp": "2025-12-24T18:55:54.775370+00:00", "meta": {"OBJECT_NAME": "TRANSPORTER-15AC", "OBJECT_ID": "2025-276AC", "EPOCH": "2025-12-23T03:48:04.245408", "MEAN_MOTION": 15.17403594, "ECCENTRICITY": 0.00017836, "INCLINATION": 97.442, "RA_OF_ASC_NODE": 68.746, "ARG_OF_PERICENTER": 265.923, "MEAN_ANOMALY": 94.18, "EPHEMERIS_TYPE": 0, "CLASSIFICATION_TYPE": "U", "NORAD_CAT_ID": 66692, "ELEMENT_SET_NO": 999, "REV_AT_EPOCH": 370, "BSTAR": 0.00037104473, "MEAN_MOTION_DOT": 7.352e-05, "MEAN_MOTION_DDOT": 0}, "tle": {"line1": "1 66692U 25276AC  25357.15838247  .00007352  00000+0  37104-3 0  9995", "line2": "2 66692  97.4420  68.7460 0001783 265.9230  94.1800 15.17403594  3705"}}, "geometry": {"type": "Point", "coordinates": [-149.21193332143542, -78.40168677233076]}}, {"type": "Feature", "properties": {"norad_id": 66693, "name": "TRANSPORTER-15AD", "group": "last-30-days", "lat": -56.05959161326085, "lon": -120.87565613975909, "alt_km": 558.8534520404473, "timestamp": "2025-12-24T18:55:54.775382+00:00", "meta": {"OBJECT_NAME": "TRANSPORTER-15AD", "OBJECT_ID": "2025-276AD", "EPOCH": "2025-12-24T03:35:03.617088", "MEAN_MOTION": 15.12110895, "ECCENTRICITY": 0.00219356, "INCLINATION": 97.4375, "RA_OF_ASC_NODE": 69.6952, "ARG_OF_PERICENTER": 66.2072, "MEAN_ANOMALY": 294.1455, "EPHEMERIS_TYPE": 0, "CLASSIFICATION_TYPE": "U", "NORAD_CAT_ID": 66693, "ELEMENT_SET_NO": 999, "REV_AT_EPOCH": 385, "BSTAR": -0.10195187, "MEAN_MOTION_DOT": -0.0160531, "MEAN_MOTION_DDOT": 0}, "tle": {"line1": "1 66693U 25276AD  25358.14934742 -.01605310  00000+0 -10195+0 0  9991", "line2": "2 66693  97.4375  69.6952 0021935  66.2072 294.1455 15.12110895  3856"}}, "geometry": {"type": "Point", "coordinates": [-120.87565613975909, -56.05959161326085]}}, {"type": "Feature", "properties": {"norad_id": 66694, "name": "YAM-9", "group": "last-30-days", "lat": -82.37584859757358, "lon": 147.88470389347992, "alt_km": 519.4188412485792, "timestamp": "2025-12-24T18:55:54.775393+00:00", "meta": {"OBJECT_NAME": "YAM-9", "OBJECT_ID": "2025-276AE", "EPOCH": "2025-12-22T15:05:57.357312", "MEAN_MOTION": 15.17554197, "ECCENTRICITY": 0.00015162, "INCLINATION": 97.4414, "RA_OF_ASC_NODE": 68.2259, "ARG_OF_PERICENTER": 262.5734, "MEAN_ANOMALY": 97.5327, "EPHEMERIS_TYPE": 0, "CLASSIFICATION_TYPE": "U", "NORAD_CAT_ID": 66694, "ELEMENT_SET_NO": 999, "REV_AT_EPOCH": 362, "BSTAR": 0.00067893264, "MEAN_MOTION_DOT": 0.00013577, "MEAN_MOTION_DDOT": 0}, "tle": {"line1": "1 66694U 25276AE  25356.62913608  .00013577  00000+0  67893-3 0  9997", "line2": "2 66694  97.4414  68.2259 0001516 262.5734  97.5327 15.17554197  3625"}}, "geometry": {"type": "Point", "coordinates": [147.88470389347992, -82.37584859757358]}}, {"type": "Feature", "properties": {"norad_id": 66695, "name": "IRIDE FM1", "group": "last-30-days", "lat": -25.887316859893573, "lon": 74.00465438485578, "alt_km": 517.6821680036546, "timestamp": "2025-12-24T18:55:54.775403+00:00", "meta": {"OBJECT_NAME": "IRIDE FM1", "OBJECT_ID": "2025-276AF", "EPOCH": "2025-12-24T01:38:51.674496", "MEAN_MOTION": 15.18285345, "ECCENTRICITY": 0.00014361, "INCLINATION": 97.4402, "RA_OF_ASC_NODE": 69.6602, "ARG_OF_PERICENTER": 142.4664, "MEAN_ANOMALY": 217.6671, "EPHEMERIS_TYPE": 0, "CLASSIFICATION_TYPE": "U", "NORAD_CAT_ID": 66695, "ELEMENT_SET_NO": 999, "REV_AT_EPOCH": 384, "BSTAR": 0.00054049679, "MEAN_MOTION_DOT": 0.00011021, "MEAN_MOTION_DDOT": 0}, "tle": {"line1": "1 66695U 25276AF  25358.06865364  .00011021  00000+0  54050-3 0  9996", "line2": "2 66695  97.4402  69.6602 0001436 142.4664 217.6671 15.18285345  3847"}}, "geometry": {"type": "Point", "coordinates": [74.00465438485578, -25.887316859893573]}}, {"type": "Feature", "properties": {"norad_id": 66696, "name": "IRIDE FM2", "group": "last-30-days", "lat": -75.22217044495706, "lon": -139.35691023766356, "alt_km": 519.1689120928422, "timestamp": "2025-12-24T18:55:54.775413+00:00", "meta": {"OBJECT_NAME": "IRIDE FM2", "OBJECT_ID": "2025-276AG", "EPOCH": "2025-12-24T03:33:29.463552", "MEAN_MOTION": 15.17435502, "ECCENTRICITY": 0.00025118, "INCLINATION": 97.4387, "RA_OF_ASC_NODE": 69.7026, "ARG_OF_PERICENTER": 261.1415, "MEAN_ANOMALY": 98.9534, "EPHEMERIS_TYPE": 0, "CLASSIFICATION_TYPE": "U", "NORAD_CAT_ID": 66696, "ELEMENT_SET_NO": 999, "REV_AT_EPOCH": 385, "BSTAR": 0.00044570909, "MEAN_MOTION_DOT": 8.855e-05, "MEAN_MOTION_DDOT": 0}, "tle": {"line1": "1 66696U 25276AG  25358.14825768  .00008855  00000+0  44571-3 0  9998", "line2": "2 66696  97.4387  69.7026 0002511 261.1415  98.9534 15.17435502  3859"}}, "geometry": {"type": "Point", "coordinates": [-139.35691023766356, -75.22217044495706]}}]}